[{"OBJECT_NAME":"TIANHUI 6A","OBJECT_ID":"2023-030A","EPOCH":"2026-03-09T23:27:00.729792","MEAN_MOTION":14.01332353,"ECCENTRICITY":0.00012385,"INCLINATION":99.0142,"RA_OF_ASC_NODE":78.4448,"ARG_OF_PERICENTER":173.8097,"MEAN_ANOMALY":186.3084,"EPHEMERIS_TYPE":0,"CLASSIFICATION_TYPE":"U","NORAD_CAT_ID":55836,"ELEMENT_SET_NO":999,"REV_AT_EPOCH":15350,"BSTAR":-9.2358714e-5,"MEAN_MOTION_DOT":-1.83e-6,"MEAN_MOTION_DDOT":0},{"OBJECT_NAME":"METEOR 2-17 DEB","OBJECT_ID":"1988-005AM","EPOCH":"2026-02-13T04:41:11.824800","MEAN_MOTION":14.04583675,"ECCENTRICITY":0.0020353,"INCLINATION":82.5408,"RA_OF_ASC_NODE":2.9145,"ARG_OF_PERICENTER":152.3488,"MEAN_ANOMALY":207.8771,"EPHEMERIS_TYPE":0,"CLASSIFICATION_TYPE":"U","NORAD_CAT_ID":38284,"ELEMENT_SET_NO":999,"REV_AT_EPOCH":57633,"BSTAR":0.0024003,"MEAN_MOTION_DOT":3.855e-5,"MEAN_MOTION_DDOT":0}]
